COSMOS 2251 DEB         
1 34274U 93036LU  25325.87361251  .00007677  00000+0  14512-2 0  9992
2 34274  74.0039 108.7547 0022623 259.2283 255.7789 14.64386568883703
COSMOS 2251 DEB         
1 34276U 93036LW  25325.91731684  .00003697  00000+0  82550-3 0  9996
2 34276  74.0218 124.9014 0022704 272.9073 248.9962 14.57007650882892
COSMOS 2251 DEB         
1 34297U 93036MT  25326.01688519  .00000389  00000+0  14108-3 0  9998
2 34297  74.0479 322.2864 0016419  36.5269  27.2027 14.36602472877677
COSMOS 2251 DEB         
1 34299U 93036MV  25326.11795316  .00296478  00000+0  48495-2 0  9996
2 34299  73.9862  20.5898 0026237  90.2578 270.1641 15.51019623886890
COSMOS 2251 DEB         
1 34301U 93036MX  25326.09135976  .00020877  00000+0  25450-2 0  9991
2 34301  74.0063 207.6921 0013307 267.7537 220.2975 14.83257316880947
COSMOS 2251 DEB         
1 34302U 93036MY  25325.99584403  .00002154  00000+0  67868-3 0  9991
2 34302  74.1774 161.5348 0077625  22.8144 129.2062 14.39216592874227
COSMOS 2251 DEB         
1 34303U 93036MZ  25326.02128000  .00003385  00000+0  71521-3 0  9992
2 34303  74.0052 327.3033 0135064 111.1373 317.0474 14.54132026876612
COSMOS 2251 DEB         
1 34304U 93036NA  25325.98673971  .00003447  00000+0  10519-2 0  9997
2 34304  74.0119 160.8664 0128748 302.9957 210.6222 14.37618105869985
